CORVUS BC1              
1 42847U 17042Y   18174.15327854  .00000226  00000-0  27698-4 0  9991
2 42847  97.5971  76.8621 0009449 166.9335 193.2131 14.91921695 51254
SILU-1 (SILKROAD 1)     
1 42903U 17021F   18173.75005722  .00022734  00000-0  17137-3 0  9997
2 42903  42.7788 294.5118 0013177 334.2323 144.5624 15.71913678 50802
MIRATA                  
1 43015U 17073C   18173.84246425  .00000603  00000-0  53836-4 0  9994
2 43015  97.7043 104.6230 0256592 253.0682 104.2259 14.78152129 31979
MAKERSAT 0              
1 43016U 17073D   18173.75955111  .00000391  00000-0  36868-4 0  9994
2 43016  97.7073 104.6619 0257958 253.3750 103.8995 14.78160820 31957
ASTERIA                 
1 43020U 98067NH  18174.48917720  .00011544  00000-0  14929-3 0  9991
2 43020  51.6420 342.6907 0002491 184.9969 175.1000 15.59426402 33471
DELLINGR (RBLE)         
1 43021U 98067NJ  18174.09728553  .00006177  00000-0  88596-4 0  9991
2 43021  51.6400 346.0469 0002496 174.1694 185.9327 15.57616825 33392
OSIRIS-3U               
1 43027U 98067NL  18174.02800042  .00026100  00000-0  26879-3 0  9997
2 43027  51.6379 341.0693 0003309 178.7186 181.3818 15.64654245 33332
AEROCUBE 7B             
1 43042U 17071F   18173.83487472  .00002884  00000-0  83933-4 0  9994
2 43042  51.6401  14.0028 0004467 285.5199  74.5292 15.38887341 30478
AEROCUBE 7C             
1 43043U 17071G   18174.48426559  .00003280  00000-0  94027-4 0  9993
2 43043  51.6403  10.8433 0004510 291.1190  68.9312 15.38894677 30546
CHEFSAT                 
1 43044U 17071H   18173.77565598  .00005410  00000-0  14420-3 0  9997
2 43044  51.6405  13.6315 0004374 287.3497  72.7009 15.39792925 30443
ASGARDIA 1              
1 43049U 17071N   18173.94500489  .00002611  00000-0  76618-4 0  9997
2 43049  51.6403  13.2488 0002044 316.3621  43.7201 15.39023259 30468
ISARA                   
1 43050U 17071P   18174.55697797  .00005228  00000-0  14032-3 0  9994
2 43050  51.6401   9.8457 0001865 312.9323  47.1505 15.39653785 30554
FAUNA                   
1 43052U 17071R   18173.93301569  .00002237  00000-0  66820-4 0  9996
2 43052  51.6403  13.1768 0001930 312.1202  47.9618 15.39157678 30454
CORVUS BC3              
1 43118U 18004H   18173.79510791  .00000793  00000-0  37544-4 0  9995
2 43118  97.5327 236.3963 0012301  77.9382 282.3232 15.22258067 24564
MICROMAS-2A             
1 43131U 18004W   18174.34458224  .00001818  00000-0  80699-4 0  9992
2 43131  97.5335 237.0577 0011512  79.3785 280.8747 15.22823509 24656
GOMX4-B                 
1 43196U 18015E   18174.18596632  .00000447  00000-0  21549-4 0  9999
2 43196  97.3482 302.9907 0020168 132.0886 228.2072 15.23549734 21440
GOMX4-A                 
1 43197U 18015F   18174.32959846  .00000596  00000-0  27643-4 0  9992
2 43197  97.3473 303.1353 0020541 132.9116 311.1990 15.23665958 21470
UBAKUSAT                
1 43466U 98067NP  18174.53788890  .00010755  00000-0  15976-3 0  9991
2 43466  51.6432 346.6690 0001893 142.2909 247.1823 15.55759643  6696
1KUNS-PF                
1 43467U 98067NQ  18173.91095553  .00008515  00000-0  12851-3 0  9990
2 43467  51.6411 349.8039 0004716 149.3685 325.4310 15.55642039  6592
BATSU-CS1 (IRAZU)       
1 43468U 98067NR  18173.88761932  .00013239  00000-0  19393-3 0  9995
2 43468  51.6427 349.8791 0001572 122.0833 238.0311 15.55909884106578
